CCSDS_OMM_VERS = 2.0
CREATION_DATE  = 
ORIGINATOR     = 

OBJECT_NAME    = ATLAS CENTAUR R/B
OBJECT_ID      = 1972-065B
CENTER_NAME    = EARTH
REF_FRAME      = TEME
TIME_SYSTEM    = UTC
MEAN_ELEMENT_THEORY = SGP/SGP4

EPOCH          = 2026-02-28T21:49:57.988416
MEAN_MOTION    = 14.77657398
ECCENTRICITY   = .00343832
INCLINATION    = 35.0029
RA_OF_ASC_NODE = 357.2057
ARG_OF_PERICENTER = 295.6344
MEAN_ANOMALY   = 64.0806

EPHEMERIS_TYPE = 0
CLASSIFICATION_TYPE = U
NORAD_CAT_ID   = 6155
ELEMENT_SET_NO = 999
REV_AT_EPOCH   = 83996
BSTAR          = .21191586E-3
MEAN_MOTION_DOT = .1533E-4
MEAN_MOTION_DDOT = 0

CCSDS_OMM_VERS = 2.0
CREATION_DATE  = 
ORIGINATOR     = 

OBJECT_NAME    = SL-8 R/B
OBJECT_ID      = 1975-112B
CENTER_NAME    = EARTH
REF_FRAME      = TEME
TIME_SYSTEM    = UTC
MEAN_ELEMENT_THEORY = SGP/SGP4

EPOCH          = 2026-02-28T22:44:04.204032
MEAN_MOTION    = 14.38197585
ECCENTRICITY   = .00146422
INCLINATION    = 74.0610
RA_OF_ASC_NODE = 34.9934
ARG_OF_PERICENTER = 131.7507
MEAN_ANOMALY   = 228.4902

EPHEMERIS_TYPE = 0
CLASSIFICATION_TYPE = U
NORAD_CAT_ID   = 8459
ELEMENT_SET_NO = 999
REV_AT_EPOCH   = 63061
BSTAR          = .84908298E-4
MEAN_MOTION_DOT = .232E-5
MEAN_MOTION_DDOT = 0

CCSDS_OMM_VERS = 2.0
CREATION_DATE  = 
ORIGINATOR     = 

OBJECT_NAME    = SL-3 R/B
OBJECT_ID      = 1977-057B
CENTER_NAME    = EARTH
REF_FRAME      = TEME
TIME_SYSTEM    = UTC
MEAN_ELEMENT_THEORY = SGP/SGP4

EPOCH          = 2026-02-28T23:27:28.075392
MEAN_MOTION    = 15.45202907
ECCENTRICITY   = .00065378
INCLINATION    = 97.5753
RA_OF_ASC_NODE = 231.5173
ARG_OF_PERICENTER = 321.2872
MEAN_ANOMALY   = 38.7907

EPHEMERIS_TYPE = 0
CLASSIFICATION_TYPE = U
NORAD_CAT_ID   = 10114
ELEMENT_SET_NO = 999
REV_AT_EPOCH   = 66698
BSTAR          = .31815011E-3
MEAN_MOTION_DOT = .1503E-3
MEAN_MOTION_DDOT = 0

CCSDS_OMM_VERS = 2.0
CREATION_DATE  = 
ORIGINATOR     = 

OBJECT_NAME    = SEASAT 1
OBJECT_ID      = 1978-064A
CENTER_NAME    = EARTH
REF_FRAME      = TEME
TIME_SYSTEM    = UTC
MEAN_ELEMENT_THEORY = SGP/SGP4

EPOCH          = 2026-02-28T22:02:58.974432
MEAN_MOTION    = 14.46152320
ECCENTRICITY   = .00020851
INCLINATION    = 108.0132
RA_OF_ASC_NODE = 107.0945
ARG_OF_PERICENTER = 289.2700
MEAN_ANOMALY   = 70.8220

EPHEMERIS_TYPE = 0
CLASSIFICATION_TYPE = U
NORAD_CAT_ID   = 10967
ELEMENT_SET_NO = 999
REV_AT_EPOCH   = 50524
BSTAR          = .10861516E-3
MEAN_MOTION_DOT = .251E-5
MEAN_MOTION_DDOT = 0

CCSDS_OMM_VERS = 2.0
CREATION_DATE  = 
ORIGINATOR     = 

OBJECT_NAME    = SL-14 R/B
OBJECT_ID      = 1979-011B
CENTER_NAME    = EARTH
REF_FRAME      = TEME
TIME_SYSTEM    = UTC
MEAN_ELEMENT_THEORY = SGP/SGP4

EPOCH          = 2026-02-28T14:14:01.800960
MEAN_MOTION    = 14.91895607
ECCENTRICITY   = .00176503
INCLINATION    = 82.5220
RA_OF_ASC_NODE = 105.2044
ARG_OF_PERICENTER = 88.3474
MEAN_ANOMALY   = 271.9767

EPHEMERIS_TYPE = 0
CLASSIFICATION_TYPE = U
NORAD_CAT_ID   = 11267
ELEMENT_SET_NO = 999
REV_AT_EPOCH   = 52742
BSTAR          = .53475153E-4
MEAN_MOTION_DOT = .568E-5
MEAN_MOTION_DDOT = 0

CCSDS_OMM_VERS = 2.0
CREATION_DATE  = 
ORIGINATOR     = 

OBJECT_NAME    = SL-8 R/B
OBJECT_ID      = 1979-089B
CENTER_NAME    = EARTH
REF_FRAME      = TEME
TIME_SYSTEM    = UTC
MEAN_ELEMENT_THEORY = SGP/SGP4

EPOCH          = 2026-02-28T14:09:40.075488
MEAN_MOTION    = 14.42343676
ECCENTRICITY   = .0017071
INCLINATION    = 74.0675
RA_OF_ASC_NODE = 107.8897
ARG_OF_PERICENTER = 281.4641
MEAN_ANOMALY   = 78.4598

EPHEMERIS_TYPE = 0
CLASSIFICATION_TYPE = U
NORAD_CAT_ID   = 11574
ELEMENT_SET_NO = 999
REV_AT_EPOCH   = 43479
BSTAR          = .73852956E-4
MEAN_MOTION_DOT = .218E-5
MEAN_MOTION_DDOT = 0

CCSDS_OMM_VERS = 2.0
CREATION_DATE  = 
ORIGINATOR     = 

OBJECT_NAME    = SL-14 R/B
OBJECT_ID      = 1980-005B
CENTER_NAME    = EARTH
REF_FRAME      = TEME
TIME_SYSTEM    = UTC
MEAN_ELEMENT_THEORY = SGP/SGP4

EPOCH          = 2026-02-28T17:37:27.435648
MEAN_MOTION    = 14.90917691
ECCENTRICITY   = .00153808
INCLINATION    = 82.5161
RA_OF_ASC_NODE = 315.7300
ARG_OF_PERICENTER = 187.7618
MEAN_ANOMALY   = 172.3365

EPHEMERIS_TYPE = 0
CLASSIFICATION_TYPE = U
NORAD_CAT_ID   = 11672
ELEMENT_SET_NO = 999
REV_AT_EPOCH   = 47515
BSTAR          = .60450769E-4
MEAN_MOTION_DOT = .623E-5
MEAN_MOTION_DDOT = 0

CCSDS_OMM_VERS = 2.0
CREATION_DATE  = 
ORIGINATOR     = 

OBJECT_NAME    = SL-8 R/B
OBJECT_ID      = 1981-003B
CENTER_NAME    = EARTH
REF_FRAME      = TEME
TIME_SYSTEM    = UTC
MEAN_ELEMENT_THEORY = SGP/SGP4

EPOCH          = 2026-02-28T17:27:58.051872
MEAN_MOTION    = 15.10578236
ECCENTRICITY   = .02627791
INCLINATION    = 82.9403
RA_OF_ASC_NODE = 298.3091
ARG_OF_PERICENTER = 209.7645
MEAN_ANOMALY   = 148.8422

EPHEMERIS_TYPE = 0
CLASSIFICATION_TYPE = U
NORAD_CAT_ID   = 12139
ELEMENT_SET_NO = 999
REV_AT_EPOCH   = 31332
BSTAR          = .43815929E-3
MEAN_MOTION_DOT = .16899E-3
MEAN_MOTION_DDOT = 0

CCSDS_OMM_VERS = 2.0
CREATION_DATE  = 
ORIGINATOR     = 

OBJECT_NAME    = SL-3 R/B
OBJECT_ID      = 1981-046B
CENTER_NAME    = EARTH
REF_FRAME      = TEME
TIME_SYSTEM    = UTC
MEAN_ELEMENT_THEORY = SGP/SGP4

EPOCH          = 2026-02-28T21:26:41.099136
MEAN_MOTION    = 15.41726398
ECCENTRICITY   = .00202824
INCLINATION    = 81.2321
RA_OF_ASC_NODE = 300.3046
ARG_OF_PERICENTER = 51.8938
MEAN_ANOMALY   = 308.4129

EPHEMERIS_TYPE = 0
CLASSIFICATION_TYPE = U
NORAD_CAT_ID   = 12465
ELEMENT_SET_NO = 999
REV_AT_EPOCH   = 43707
BSTAR          = .3237039E-3
MEAN_MOTION_DOT = .13809E-3
MEAN_MOTION_DDOT = 0

CCSDS_OMM_VERS = 2.0
CREATION_DATE  = 
ORIGINATOR     = 

OBJECT_NAME    = SL-3 R/B
OBJECT_ID      = 1981-103B
CENTER_NAME    = EARTH
REF_FRAME      = TEME
TIME_SYSTEM    = UTC
MEAN_ELEMENT_THEORY = SGP/SGP4

EPOCH          = 2026-02-28T23:00:31.071744
MEAN_MOTION    = 15.21247600
ECCENTRICITY   = .00126774
INCLINATION    = 81.1565
RA_OF_ASC_NODE = 223.6741
ARG_OF_PERICENTER = 317.9541
MEAN_ANOMALY   = 42.0716

EPHEMERIS_TYPE = 0
CLASSIFICATION_TYPE = U
NORAD_CAT_ID   = 12904
ELEMENT_SET_NO = 999
REV_AT_EPOCH   = 97190
BSTAR          = .24452957E-3
MEAN_MOTION_DOT = .5496E-4
MEAN_MOTION_DDOT = 0

CCSDS_OMM_VERS = 2.0
CREATION_DATE  = 
ORIGINATOR     = 

OBJECT_NAME    = SL-3 R/B
OBJECT_ID      = 1982-013B
CENTER_NAME    = EARTH
REF_FRAME      = TEME
TIME_SYSTEM    = UTC
MEAN_ELEMENT_THEORY = SGP/SGP4

EPOCH          = 2026-02-28T21:42:47.310336
MEAN_MOTION    = 15.21906933
ECCENTRICITY   = .00222193
INCLINATION    = 81.1767
RA_OF_ASC_NODE = 171.0639
ARG_OF_PERICENTER = 207.2875
MEAN_ANOMALY   = 152.7191

EPHEMERIS_TYPE = 0
CLASSIFICATION_TYPE = U
NORAD_CAT_ID   = 13068
ELEMENT_SET_NO = 999
REV_AT_EPOCH   = 40301
BSTAR          = .2484494E-3
MEAN_MOTION_DOT = .5719E-4
MEAN_MOTION_DDOT = 0

CCSDS_OMM_VERS = 2.0
CREATION_DATE  = 
ORIGINATOR     = 

OBJECT_NAME    = SL-3 R/B
OBJECT_ID      = 1982-039B
CENTER_NAME    = EARTH
REF_FRAME      = TEME
TIME_SYSTEM    = UTC
MEAN_ELEMENT_THEORY = SGP/SGP4

EPOCH          = 2026-02-28T21:50:30.903360
MEAN_MOTION    = 15.10019217
ECCENTRICITY   = .0029907
INCLINATION    = 81.1581
RA_OF_ASC_NODE = 226.0836
ARG_OF_PERICENTER = 353.0981
MEAN_ANOMALY   = 6.9827

EPHEMERIS_TYPE = 0
CLASSIFICATION_TYPE = U
NORAD_CAT_ID   = 13154
ELEMENT_SET_NO = 999
REV_AT_EPOCH   = 38031
BSTAR          = .17230684E-3
MEAN_MOTION_DOT = .2852E-4
MEAN_MOTION_DDOT = 0

