ATLAS CENTAUR R/B       
1 06155U 72065B   26059.90969894  .00001533  00000+0  21192-3 0  9992
2 06155  35.0029 357.2057 0034383 295.6344  64.0806 14.77657398839967
SL-8 R/B                
1 08459U 75112B   26059.94727088  .00000232  00000+0  84908-4 0  9998
2 08459  74.0610  34.9934 0014642 131.7507 228.4902 14.38197585630613
SL-3 R/B                
1 10114U 77057B   26059.97740828  .00015030  00000+0  31815-3 0  9999
2 10114  97.5753 231.5173 0006537 321.2872  38.7907 15.45202907666987
SEASAT 1                
1 10967U 78064A   26059.91873813  .00000251  00000+0  10862-3 0  9997
2 10967 108.0132 107.0945 0002085 289.2700  70.8220 14.46152320505242
SL-14 R/B               
1 11267U 79011B   26059.59307640  .00000568  00000+0  53475-4 0  9997
2 11267  82.5220 105.2044 0017650  88.3474 271.9767 14.91895607527426
SL-8 R/B                
1 11574U 79089B   26059.59004717  .00000218  00000+0  73853-4 0  9996
2 11574  74.0675 107.8897 0017071 281.4641  78.4598 14.42343676434799
SL-14 R/B               
1 11672U 80005B   26059.73434532  .00000623  00000+0  60451-4 0  9993
2 11672  82.5161 315.7300 0015380 187.7618 172.3365 14.90917691475152
SL-8 R/B                
1 12139U 81003B   26059.72775523  .00016899  00000+0  43816-3 0  9995
2 12139  82.9403 298.3091 0262779 209.7645 148.8422 15.10578236313321
SL-3 R/B                
1 12465U 81046B   26059.89353124  .00013809  00000+0  32370-3 0  9992
2 12465  81.2321 300.3046 0020282  51.8938 308.4129 15.41726398437075
SL-3 R/B                
1 12904U 81103B   26059.95869296  .00005496  00000+0  24453-3 0  9999
2 12904  81.1565 223.6741 0012677 317.9541  42.0716 15.21247600971906
SL-3 R/B                
1 13068U 82013B   26059.90471424  .00005719  00000+0  24845-3 0  9992
2 13068  81.1767 171.0639 0022219 207.2875 152.7191 15.21906933403017
SL-3 R/B                
1 13154U 82039B   26059.91007990  .00002852  00000+0  17231-3 0  9996
2 13154  81.1581 226.0836 0029907 353.0981   6.9827 15.10019217380317
